OBJECT_NAME,OBJECT_ID,EPOCH,MEAN_MOTION,ECCENTRICITY,INCLINATION,RA_OF_ASC_NODE,ARG_OF_PERICENTER,MEAN_ANOMALY,EPHEMERIS_TYPE,CLASSIFICATION_TYPE,NORAD_CAT_ID,ELEMENT_SET_NO,REV_AT_EPOCH,BSTAR,MEAN_MOTION_DOT,MEAN_MOTION_DDOT
GSAT0225 (GALILEO 29),2024-079A,2026-06-27T02:08:27.794112,1.70474177,.00016021,55.1252,100.8034,296.6342,246.1420,0,U,59598,999,1348,0,-.38E-6,0
GSAT0227 (GALILEO 30),2024-079C,2026-06-28T03:33:05.970528,1.70473976,.00026488,55.1211,100.7723,63.8274,296.1782,0,U,59600,999,1355,0,-.34E-6,0
GSAT0232 (GALILEO 32),2024-167A,2026-06-27T05:03:51.138720,1.70474501,.0006275,55.1827,221.0386,229.7810,130.7838,0,U,61182,999,1105,0,.67E-6,0
GSAT0226 (GALILEO 31),2024-167B,2026-06-26T11:30:20.311200,1.70474505,.0002937,55.1816,221.0657,230.4036,132.4929,0,U,61183,999,1101,0,.64E-6,0
BEIDOU-3 M25 (C47),2024-168B,2026-06-26T16:31:15.592224,1.86230368,.0003152,54.4642,301.9122,298.5828,129.4520,0,U,61186,999,1196,0,-.1E-5,0
BEIDOU-3 M27 (C49),2024-168C,2026-06-28T12:47:42.866592,1.86230464,.00013175,54.4577,301.8312,47.2683,312.6139,0,U,61187,999,946,0,-.86E-6,0
GPS BIII-7  (PRN 01),2024-242A,2026-06-26T01:37:41.317248,2.00572026,.00176661,54.8454,333.8210,4.5395,177.0108,0,U,62339,999,1143,0,-.106E-5,0
QZS-6 (QZSS/PRN 200),2025-023A,2026-06-28T15:40:43.271904,1.00273059,.00021104,0.0521,282.3683,188.1012,131.9822,0,U,62876,999,506,0,-.222E-5,0
COSMOS 2584 (704K),2025-042A,2026-06-25T14:05:06.281664,2.13103987,.00062611,65.0897,72.5163,227.4073,132.5759,0,U,63130,999,1022,0,-.66E-6,0
GPS BIII-8  (PRN 21),2025-116A,2026-06-27T19:23:48.396192,2.00575452,.00082595,55.2417,30.7029,342.1141,199.0923,0,U,64202,999,808,0,-.78E-6,0
COSMOS 2596 (708K),2025-206B,2026-06-27T20:03:44.455680,2.13101038,.00110618,64.6279,314.6147,310.3600,91.2409,0,U,65590,999,614,0,-.8E-6,0
GSAT0233 (GALILEO 33),2025-302A,2026-06-28T08:43:45.640416,1.70474273,.00008832,54.3415,101.8130,200.7223,335.1297,0,U,67160,999,331,0,-.33E-6,0
GSAT0234 (GALILEO 34),2025-302C,2026-06-27T11:42:56.390688,1.70474246,.00029185,54.3430,101.8368,307.1901,231.4101,0,U,67162,999,335,0,-.36E-6,0
GPS BIII-9  (PRN 20),2026-017A,2026-06-28T03:58:34.663008,2.00570961,.00208945,55.0953,88.3146,258.1003,101.6754,0,U,67588,999,43183,0,-.55E-6,0
GPS BIII-10 (PRN 13),2026-087A,2026-06-22T15:38:01.863744,2.00570839,.00206819,54.9627,207.5713,106.6591,76.9843,0,U,68791,999,94,0,.58E-6,0
